STARLINK-30502          
1 57973U 23151K   26068.07659787 -.00003338  00000+0 -11181-3 0  9997
2 57973  43.0036 339.3691 0001924 254.6619 105.4020 15.27576128135670
HERMES-4                
1 63833U 25052BP  26068.92081747  .00021364  00000+0  81237-3 0  9996
2 63833  97.4000 323.4610 0002652 154.9526 205.1842 15.26796135 54782
